{"fetched_at":"2026-07-12T17:32:22.539Z","source":"https://celestrak.org/NORAD/elements/gp.php?GROUP=kuiper&FORMAT=JSON","constellation":"kuiper","records":[{"OBJECT_NAME":"KUIPER-00080","OBJECT_ID":"2025-151M","EPOCH":"2026-07-12T04:24:41.204736","CLASSIFICATION_TYPE":"U","MEAN_MOTION":14.79939608,"ECCENTRICITY":0.00008372,"INCLINATION":51.8996,"RA_OF_ASC_NODE":110.0511,"ARG_OF_PERICENTER":103.0134,"MEAN_ANOMALY":257.0922,"EPHEMERIS_TYPE":0,"NORAD_CAT_ID":64827,"ELEMENT_SET_NO":999,"REV_AT_EPOCH":5374,"BSTAR":0.00029583132,"MEAN_MOTION_DOT":0.00002035,"MEAN_MOTION_DDOT":0},{"OBJECT_NAME":"KUIPER-00082","OBJECT_ID":"2025-151N","EPOCH":"2026-07-12T03:55:29.410176","CLASSIFICATION_TYPE":"U","MEAN_MOTION":14.79936945,"ECCENTRICITY":0.00008059,"INCLINATION":51.9008,"RA_OF_ASC_NODE":97.6915,"ARG_OF_PERICENTER":113.2409,"MEAN_ANOMALY":246.8639,"EPHEMERIS_TYPE":0,"NORAD_CAT_ID":64828,"ELEMENT_SET_NO":999,"REV_AT_EPOCH":5391,"BSTAR":0.00027717775,"MEAN_MOTION_DOT":0.00001893,"MEAN_MOTION_DDOT":0},{"OBJECT_NAME":"KUIPER-00083","OBJECT_ID":"2025-151P","EPOCH":"2026-07-12T03:43:48.974016","CLASSIFICATION_TYPE":"U","MEAN_MOTION":14.79945336,"ECCENTRICITY":0.00007781,"INCLINATION":51.9004,"RA_OF_ASC_NODE":105.2133,"ARG_OF_PERICENTER":99.7904,"MEAN_ANOMALY":260.3147,"EPHEMERIS_TYPE":0,"NORAD_CAT_ID":64829,"ELEMENT_SET_NO":999,"REV_AT_EPOCH":5499,"BSTAR":0.00028872973,"MEAN_MOTION_DOT":0.00001981,"MEAN_MOTION_DDOT":0},{"OBJECT_NAME":"KUIPER-00084","OBJECT_ID":"2025-151Q","EPOCH":"2026-07-12T03:28:18.332832","CLASSIFICATION_TYPE":"U","MEAN_MOTION":14.7993765,"ECCENTRICITY":0.00010694,"INCLINATION":51.9025,"RA_OF_ASC_NODE":115.2452,"ARG_OF_PERICENTER":87.0369,"MEAN_ANOMALY":273.0716,"EPHEMERIS_TYPE":0,"NORAD_CAT_ID":64830,"ELEMENT_SET_NO":999,"REV_AT_EPOCH":5366,"BSTAR":0.00029516427,"MEAN_MOTION_DOT":0.0000203,"MEAN_MOTION_DDOT":0},{"OBJECT_NAME":"KUIPER-00085","OBJECT_ID":"2025-151R","EPOCH":"2026-07-12T03:06:52.330176","CLASSIFICATION_TYPE":"U","MEAN_MOTION":14.79939128,"ECCENTRICITY":0.00007456,"INCLINATION":51.9027,"RA_OF_ASC_NODE":97.8889,"ARG_OF_PERICENTER":117.2994,"MEAN_ANOMALY":242.8044,"EPHEMERIS_TYPE":0,"NORAD_CAT_ID":64831,"ELEMENT_SET_NO":999,"REV_AT_EPOCH":5390,"BSTAR":0.00031530918,"MEAN_MOTION_DOT":0.00002184,"MEAN_MOTION_DDOT":0},{"OBJECT_NAME":"KUIPER-00086","OBJECT_ID":"2025-151S","EPOCH":"2026-07-12T04:28:33.890304","CLASSIFICATION_TYPE":"U","MEAN_MOTION":14.79942994,"ECCENTRICITY":0.00008015,"INCLINATION":51.9007,"RA_OF_ASC_NODE":107.586,"ARG_OF_PERICENTER":104.6815,"MEAN_ANOMALY":255.4236,"EPHEMERIS_TYPE":0,"NORAD_CAT_ID":64832,"ELEMENT_SET_NO":999,"REV_AT_EPOCH":5377,"BSTAR":0.00028409557,"MEAN_MOTION_DOT":0.00001946,"MEAN_MOTION_DDOT":0},{"OBJECT_NAME":"KUIPER-00087","OBJECT_ID":"2025-151T","EPOCH":"2026-07-12T03:18:29.604960","CLASSIFICATION_TYPE":"U","MEAN_MOTION":14.79936938,"ECCENTRICITY":0.00009091,"INCLINATION":51.9003,"RA_OF_ASC_NODE":90.2637,"ARG_OF_PERICENTER":109.1966,"MEAN_ANOMALY":250.9095,"EPHEMERIS_TYPE":0,"NORAD_CAT_ID":64833,"ELEMENT_SET_NO":999,"REV_AT_EPOCH":5400,"BSTAR":0.00027369501,"MEAN_MOTION_DOT":0.00001866,"MEAN_MOTION_DDOT":0},{"OBJECT_NAME":"KUIPER-00089","OBJECT_ID":"2025-151U","EPOCH":"2026-07-12T03:10:43.826016","CLASSIFICATION_TYPE":"U","MEAN_MOTION":14.79944844,"ECCENTRICITY":0.00006912,"INCLINATION":51.8998,"RA_OF_ASC_NODE":95.3088,"ARG_OF_PERICENTER":102.7142,"MEAN_ANOMALY":257.3898,"EPHEMERIS_TYPE":0,"NORAD_CAT_ID":64834,"ELEMENT_SET_NO":999,"REV_AT_EPOCH":5394,"BSTAR":0.00031065204,"MEAN_MOTION_DOT":0.00002148,"MEAN_MOTION_DDOT":0},{"OBJECT_NAME":"KUIPER-00090","OBJECT_ID":"2025-151V","EPOCH":"2026-07-12T01:45:09.165600","CLASSIFICATION_TYPE":"U","MEAN_MOTION":14.79932571,"ECCENTRICITY":0.00008798,"INCLINATION":51.8965,"RA_OF_ASC_NODE":88.0798,"ARG_OF_PERICENTER":100.1875,"MEAN_ANOMALY":259.9186,"EPHEMERIS_TYPE":0,"NORAD_CAT_ID":64835,"ELEMENT_SET_NO":999,"REV_AT_EPOCH":5403,"BSTAR":-0.00004193699,"MEAN_MOTION_DOT":-0.00000541,"MEAN_MOTION_DDOT":0},{"OBJECT_NAME":"KUIPER-00091","OBJECT_ID":"2025-151W","EPOCH":"2026-07-12T03:14:38.028768","CLASSIFICATION_TYPE":"U","MEAN_MOTION":14.79936195,"ECCENTRICITY":0.00007277,"INCLINATION":51.9006,"RA_OF_ASC_NODE":92.8133,"ARG_OF_PERICENTER":102.9351,"MEAN_ANOMALY":257.1693,"EPHEMERIS_TYPE":0,"NORAD_CAT_ID":64836,"ELEMENT_SET_NO":999,"REV_AT_EPOCH":5397,"BSTAR":0.00028882241,"MEAN_MOTION_DOT":0.00001981,"MEAN_MOTION_DDOT":0},{"OBJECT_NAME":"KUIPER-00092","OBJECT_ID":"2025-151X","EPOCH":"2026-07-12T03:02:58.428096","CLASSIFICATION_TYPE":"U","MEAN_MOTION":14.79934489,"ECCENTRICITY":0.00013763,"INCLINATION":51.9024,"RA_OF_ASC_NODE":100.3402,"ARG_OF_PERICENTER":78.4657,"MEAN_ANOMALY":281.6459,"EPHEMERIS_TYPE":0,"NORAD_CAT_ID":64837,"ELEMENT_SET_NO":999,"REV_AT_EPOCH":5508,"BSTAR":0.00016862387,"MEAN_MOTION_DOT":0.00001064,"MEAN_MOTION_DDOT":0},{"OBJECT_NAME":"KUIPER-00093","OBJECT_ID":"2025-151Y","EPOCH":"2026-07-12T02:59:05.299296","CLASSIFICATION_TYPE":"U","MEAN_MOTION":14.79934657,"ECCENTRICITY":0.0000746,"INCLINATION":51.8995,"RA_OF_ASC_NODE":102.8269,"ARG_OF_PERICENTER":99.8947,"MEAN_ANOMALY":260.21,"EPHEMERIS_TYPE":0,"NORAD_CAT_ID":64838,"ELEMENT_SET_NO":999,"REV_AT_EPOCH":5383,"BSTAR":0.000085046424,"MEAN_MOTION_DOT":0.00000427,"MEAN_MOTION_DDOT":0},{"OBJECT_NAME":"KUIPER-00094","OBJECT_ID":"2025-151Z","EPOCH":"2026-07-12T00:54:33.333984","CLASSIFICATION_TYPE":"U","MEAN_MOTION":14.7990242,"ECCENTRICITY":0.00009935,"INCLINATION":51.9035,"RA_OF_ASC_NODE":58.2995,"ARG_OF_PERICENTER":98.5293,"MEAN_ANOMALY":261.5782,"EPHEMERIS_TYPE":0,"NORAD_CAT_ID":64839,"ELEMENT_SET_NO":999,"REV_AT_EPOCH":5445,"BSTAR":0.00031055822,"MEAN_MOTION_DOT":0.00002145,"MEAN_MOTION_DDOT":0},{"OBJECT_NAME":"KUIPER-00081","OBJECT_ID":"2025-171A","EPOCH":"2026-07-12T12:24:39.168864","CLASSIFICATION_TYPE":"U","MEAN_MOTION":14.79931569,"ECCENTRICITY":0.0000537,"INCLINATION":51.9018,"RA_OF_ASC_NODE":316.0875,"ARG_OF_PERICENTER":110.1667,"MEAN_ANOMALY":249.9353,"EPHEMERIS_TYPE":0,"NORAD_CAT_ID":65132,"ELEMENT_SET_NO":999,"REV_AT_EPOCH":5152,"BSTAR":0.00011654,"MEAN_MOTION_DOT":0.00000667,"MEAN_MOTION_DDOT":0},{"OBJECT_NAME":"KUIPER-00088","OBJECT_ID":"2025-171B","EPOCH":"2026-07-11T14:53:18.875040","CLASSIFICATION_TYPE":"U","MEAN_MOTION":14.79937371,"ECCENTRICITY":0.00008934,"INCLINATION":51.9001,"RA_OF_ASC_NODE":337.5535,"ARG_OF_PERICENTER":106.6451,"MEAN_ANOMALY":253.461,"EPHEMERIS_TYPE":0,"NORAD_CAT_ID":65133,"ELEMENT_SET_NO":999,"REV_AT_EPOCH":5114,"BSTAR":0.00026474918,"MEAN_MOTION_DOT":0.00001798,"MEAN_MOTION_DDOT":0},{"OBJECT_NAME":"KUIPER-00095","OBJECT_ID":"2025-171C","EPOCH":"2026-07-12T12:28:32.604384","CLASSIFICATION_TYPE":"U","MEAN_MOTION":14.79930835,"ECCENTRICITY":0.0000475,"INCLINATION":51.8987,"RA_OF_ASC_NODE":313.6254,"ARG_OF_PERICENTER":120.0826,"MEAN_ANOMALY":240.0183,"EPHEMERIS_TYPE":0,"NORAD_CAT_ID":65134,"ELEMENT_SET_NO":999,"REV_AT_EPOCH":5155,"BSTAR":0.00016595,"MEAN_MOTION_DOT":0.00001044,"MEAN_MOTION_DDOT":0}]}
