KUIPER-00080            
1 64827U 25151M   26193.18381024  .00002035  00000+0  29583-3 0  9998
2 64827  51.8996 110.0511 0000837 103.0134 257.0922 14.79939608 53748
KUIPER-00082            
1 64828U 25151N   26193.16353484  .00001893  00000+0  27718-3 0  9995
2 64828  51.9008  97.6915 0000805 113.2409 246.8639 14.79936945 53916
KUIPER-00083            
1 64829U 25151P   26193.15542794  .00001981  00000+0  28873-3 0  9990
2 64829  51.9004 105.2133 0000778  99.7904 260.3147 14.79945336 54996
KUIPER-00084            
1 64830U 25151Q   26193.14465663  .00002030  00000+0  29516-3 0  9991
2 64830  51.9025 115.2452 0001069  87.0369 273.0716 14.79937650 53661
KUIPER-00085            
1 64831U 25151R   26193.12977234  .00002184  00000+0  31531-3 0  9992
2 64831  51.9027  97.8889 0000745 117.2994 242.8044 14.79939128 53900
KUIPER-00086            
1 64832U 25151S   26193.18650336  .00001946  00000+0  28410-3 0  9997
2 64832  51.9007 107.5860 0000801 104.6815 255.4236 14.79942994 53775
KUIPER-00087            
1 64833U 25151T   26193.13784265  .00001866  00000+0  27370-3 0  9997
2 64833  51.9003  90.2637 0000909 109.1966 250.9095 14.79936938 54009
KUIPER-00089            
1 64834U 25151U   26193.13245169  .00002148  00000+0  31065-3 0  9993
2 64834  51.8998  95.3088 0000691 102.7142 257.3898 14.79944844 53940
KUIPER-00090            
1 64835U 25151V   26193.07302275 -.00000541  00000+0 -41937-4 0  9996
2 64835  51.8965  88.0798 0000879 100.1875 259.9186 14.79932571 54038
KUIPER-00091            
1 64836U 25151W   26193.13516237  .00001981  00000+0  28882-3 0  9999
2 64836  51.9006  92.8133 0000727 102.9351 257.1693 14.79936195 53974
KUIPER-00092            
1 64837U 25151X   26193.12706514  .00001064  00000+0  16862-3 0  9995
2 64837  51.9024 100.3402 0001376  78.4657 281.6459 14.79934489 55086
KUIPER-00093            
1 64838U 25151Y   26193.12436689  .00000427  00000+0  85046-4 0  9992
2 64838  51.8995 102.8269 0000746  99.8947 260.2100 14.79934657 53834
KUIPER-00094            
1 64839U 25151Z   26193.03788581  .00002145  00000+0  31056-3 0  9994
2 64839  51.9035  58.2995 0000993  98.5293 261.5782 14.79902420 54457
KUIPER-00081            
1 65132U 25171A   26193.51712001  .00000667  00000+0  11654-3 0  9999
2 65132  51.9018 316.0875 0000537 110.1667 249.9353 14.79931569 51522
KUIPER-00088            
1 65133U 25171B   26192.62035735  .00001798  00000+0  26475-3 0  9996
2 65133  51.9001 337.5535 0000893 106.6451 253.4610 14.79937371 51143
KUIPER-00095            
1 65134U 25171C   26193.51982181  .00001044  00000+0  16595-3 0  9998
2 65134  51.8987 313.6254 0000475 120.0826 240.0183 14.79930835 51551
